      2.10          N: GNSS NAV DATA                        RINEX VERSION / TYPE
fic2rin                                 04/22/2024 00:59:02 PGM / RUN BY / DATE
                                                            END OF HEADER
29 24  4 21  1 59 44.0 -.601208768785D-03  .125055521494D-11  .000000000000D+00
     .100000000000D+01 -.564375000000D+02  .448482966830D-08  .118340336308D+01
    -.291317701340D-05  .282778707333D-02  .462494790554D-05  .515360448647D+04
     .718400000000D+04  .987201929092D-07  .167819088387D+01  .279396772385D-07
     .971543404454D+00  .295781250000D+03  .250501802122D+01 -.822034241026D-08
    -.256796410887D-09  .100000000000D+01  .231100000000D+04  .000000000000D+00
     .240000000000D+01  .000000000000D+00 -.977888703346D-08  .100000000000D+01
     .270000000000D+04  .400000000000D+01
6  24  4 21  1 59 44.0  .311998184770D-03 -.183035808732D-10  .000000000000D+00
     .310000000000D+02 -.259375000000D+02  .371586906658D-08 -.837214574010D+00
    -.163912773132D-05  .306197244208D-02  .114031136036D-04  .515360670280D+04
     .718400000000D+04 -.186264514923D-07  .266353513125D+01 -.353902578354D-07
     .989963813521D+00  .174500000000D+03 -.699681751091D+00 -.762174604774D-08
     .175007289756D-10  .100000000000D+01  .231100000000D+04  .000000000000D+00
     .240000000000D+01  .000000000000D+00  .419095158577D-08  .310000000000D+02
     .276000000000D+04  .400000000000D+01
6  24  4 21  3 59 44.0  .311866402626D-03 -.183035808732D-10  .000000000000D+00
     .320000000000D+02 -.308750000000D+02  .360086427616D-08  .212881790810D+00
    -.152178108692D-05  .306238315534D-02  .109504908323D-04  .515360722351D+04
     .143840000000D+05 -.186264514923D-07  .266348022355D+01 -.614672899246D-07
     .989963968590D+00  .179937500000D+03 -.699561952729D+00 -.761067415798D-08
     .214294640518D-10  .100000000000D+01  .231100000000D+04  .000000000000D+00
     .240000000000D+01  .000000000000D+00  .419095158577D-08  .320000000000D+02
     .720000000000D+04  .400000000000D+01
20 24  4 21  3 59 44.0  .379417091608D-03 -.136424205266D-11  .000000000000D+00
     .100000000000D+02  .554687500000D+02  .484877339945D-08  .670646706876D+00
     .273250043392D-05  .365859793965D-02  .805221498013D-05  .515376804733D+04
     .143840000000D+05 -.111758708954D-07 -.276277599591D+01  .745058059692D-07
     .953487795954D+00  .222531250000D+03 -.259444591814D+01 -.823927177017D-08
     .441446959466D-09  .100000000000D+01  .231100000000D+04  .000000000000D+00
     .240000000000D+01  .000000000000D+00 -.838190317154D-08  .100000000000D+02
     .720000000000D+04  .400000000000D+01
29 24  4 21  3 59 44.0 -.601199921221D-03  .125055521494D-11  .000000000000D+00
     .230000000000D+02 -.535000000000D+02  .444732810621D-08  .223344824781D+01
    -.273250043392D-05  .282770092599D-02  .474974513054D-05  .515360544777D+04
     .143840000000D+05 -.186264514923D-08  .167813234959D+01  .502914190292D-07
     .971541438292D+00  .293593750000D+03  .250519544393D+01 -.816569727693D-08
    -.324656380384D-09  .100000000000D+01  .231100000000D+04  .000000000000D+00
     .240000000000D+01  .000000000000D+00 -.977888703346D-08  .230000000000D+02
     .720000000000D+04  .400000000000D+01
2  24  4 21  4  0  0.0 -.449787825346D-03  .648014975013D-11  .000000000000D+00
     .270000000000D+02 -.505937500000D+02  .412481467223D-08  .245751788164D+01
    -.262632966042D-05  .160098156193D-01  .105351209641D-04  .515370725822D+04
     .144000000000D+05  .232830643654D-06  .256602622847D+01 -.372529029846D-08
     .967610107816D+00  .177406250000D+03 -.120058464981D+01 -.757924427738D-08
    -.208937274505D-09  .100000000000D+01  .231100000000D+04  .000000000000D+00
     .240000000000D+01  .000000000000D+00 -.176951289177D-07  .270000000000D+02
     .720000000000D+04  .400000000000D+01
5  24  4 21  4  0  0.0 -.169894658029D-03 -.136424205266D-11  .000000000000D+00
     .980000000000D+02  .550937500000D+02  .451304512930D-08  .256863741289D+01
     .276416540146D-05  .576499942690D-02  .727735459805D-05  .515359671402D+04
     .144000000000D+05  .558793544769D-07 -.263462705808D+01 -.689178705215D-07
     .970945596147D+00  .245781250000D+03  .123672314292D+01 -.795747431789D-08
     .467876631797D-09  .100000000000D+01  .231100000000D+04  .000000000000D+00
     .240000000000D+01  .000000000000D+00 -.107102096081D-07  .980000000000D+02
     .720000000000D+04  .400000000000D+01
3  24  4 21  4  0  0.0  .322095584124D-03  .206910044653D-10  .000000000000D+00
     .740000000000D+02  .538125000000D+02  .428232123301D-08 -.106500776153D+01
     .293739140034D-05  .534535967745D-02  .713765621185D-05  .515373821640D+04
     .144000000000D+05  .186264514923D-07 -.258377274871D+01  .104308128357D-06
     .983942847935D+00  .256875000000D+03  .106897935736D+01 -.794247369305D-08
     .477877048354D-09  .100000000000D+01  .231100000000D+04  .000000000000D+00
     .240000000000D+01  .000000000000D+00  .186264514923D-08  .740000000000D+02
     .720000000000D+04  .400000000000D+01
7  24  4 21  4  0  0.0 -.111916568130D-03 -.841282599140D-11  .000000000000D+00
     .640000000000D+02 -.406250000000D+01  .462162108050D-08 -.651304318559D+00
    -.182539224625D-06  .183773854515D-01  .108834356070D-04  .515365313911D+04
     .144000000000D+05 -.651925802231D-07 -.491394567573D+00  .316649675369D-06
     .950615078351D+00  .165750000000D+03 -.213182406285D+01 -.830891752834D-08
    -.290726395636D-09  .100000000000D+01  .231100000000D+04  .000000000000D+00
     .240000000000D+01  .000000000000D+00 -.111758708954D-07  .640000000000D+02
     .720000000000D+04  .400000000000D+01
4  24  4 21  4  0  0.0  .343577004969D-03  .864019966684D-11  .000000000000D+00
     .620000000000D+02 -.497812500000D+02  .490306137504D-08  .188283678529D+01
    -.246800482273D-05  .279721443076D-02  .488944351673D-05  .515375602150D+04
     .144000000000D+05  .372529029846D-08 -.150462576106D+01  .521540641785D-07
     .964257513584D+00  .290468750000D+03 -.294291660779D+01 -.832498962638D-08
    -.326442169055D-09  .100000000000D+01  .231100000000D+04  .000000000000D+00
     .240000000000D+01  .000000000000D+00 -.465661287308D-08  .318000000000D+03
     .720000000000D+04  .400000000000D+01
27 24  4 21  4  0  0.0 -.198618508875D-04 -.216004991671D-11  .000000000000D+00
     .780000000000D+02 -.486250000000D+02  .464983654150D-08  .227480155233D+01
    -.262446701527D-05  .125729391584D-01  .381655991077D-05  .515367626381D+04
     .144000000000D+05 -.968575477600D-07  .159516260255D+01 -.206753611565D-06
     .962373744695D+00  .308750000000D+03  .785837837574D+00 -.828284501374D-08
    -.208222959036D-09  .100000000000D+01  .231100000000D+04  .000000000000D+00
     .240000000000D+01  .000000000000D+00  .186264514923D-08  .780000000000D+02
     .720000000000D+04  .400000000000D+01
32 24  4 21  4  0  0.0 -.618295744061D-03 -.341060513165D-12  .000000000000D+00
     .650000000000D+02 -.534062500000D+02  .491270463387D-08  .292649873900D+01
    -.275485217571D-05  .773843168281D-02  .458769500256D-05  .515365828133D+04
     .144000000000D+05  .204890966415D-07 -.154941437613D+01 -.124797224998D-06
     .961248263300D+00  .287843750000D+03 -.213845244811D+01 -.823927177017D-08
    -.377515725045D-09  .100000000000D+01  .231100000000D+04  .000000000000D+00
     .240000000000D+01  .000000000000D+00  .931322574615D-09  .650000000000D+02
     .720000000000D+04  .400000000000D+01
24 24  4 21  4  0  0.0 -.461701303720D-03 -.420641299570D-11  .000000000000D+00
     .510000000000D+02 -.195312500000D+02  .503770984084D-08  .376974241096D+00
    -.827014446259D-06  .152085133595D-01  .113360583782D-04  .515372612000D+04
     .144000000000D+05 -.169500708580D-06 -.587772200191D+00  .186264514923D-06
     .934214779213D+00  .147625000000D+03  .973812513280D+00 -.845463788389D-08
    -.403945397376D-09  .100000000000D+01  .231100000000D+04  .000000000000D+00
     .240000000000D+01  .000000000000D+00  .232830643654D-08  .510000000000D+02
     .720000000000D+04  .400000000000D+01
16 24  4 21  4  0  0.0 -.311529729515D-03  .954969436862D-11  .000000000000D+00
     .490000000000D+02  .819062500000D+02  .449340145392D-08  .313434689349D+01
     .411272048950D-05  .139532161411D-01  .583380460739D-05  .515376538467D+04
     .144000000000D+05  .745058059692D-08  .641595427196D+00 -.176951289177D-06
     .962404318220D+00  .267156250000D+03  .836637874149D+00 -.798818988303D-08
     .367158150754D-09  .100000000000D+01  .231100000000D+04  .000000000000D+00
     .240000000000D+01  .000000000000D+00 -.102445483208D-07  .490000000000D+02
     .720000000000D+04  .400000000000D+01
8  24  4 21  4  0  0.0  .134410802275D-03  .225099938689D-10  .000000000000D+00
     .300000000000D+02 -.416562500000D+02  .494377735674D-08  .219074035576D+01
    -.218302011490D-05  .946002488490D-02  .365264713764D-05  .515361536789D+04
     .144000000000D+05 -.132247805595D-06  .156898968148D+01  .223517417908D-07
     .953377917640D+00  .307000000000D+03  .356123651534D+00 -.846178103857D-08
    -.237867050975D-09  .100000000000D+01  .231100000000D+04  .000000000000D+00
     .240000000000D+01  .000000000000D+00  .465661287308D-08  .300000000000D+02
     .720000000000D+04  .400000000000D+01
12 24  4 21  4  0  0.0 -.498454552144D-03 -.341060513165D-11  .000000000000D+00
     .770000000000D+02  .796875000000D+02  .462519265784D-08 -.137732481248D+01
     .424869358540D-05  .888932670932D-02  .578351318836D-05  .515366785812D+04
     .144000000000D+05  .428408384323D-07  .623692633656D+00  .216066837311D-06
     .962915197009D+00  .270031250000D+03  .143873668856D+01 -.829248827256D-08
     .302869758598D-09  .100000000000D+01  .231100000000D+04  .000000000000D+00
     .240000000000D+01  .000000000000D+00 -.125728547573D-07  .770000000000D+02
     .720000000000D+04  .400000000000D+01
